OBJECT_NAME,OBJECT_ID,EPOCH,MEAN_MOTION,ECCENTRICITY,INCLINATION,RA_OF_ASC_NODE,ARG_OF_PERICENTER,MEAN_ANOMALY,EPHEMERIS_TYPE,CLASSIFICATION_TYPE,NORAD_CAT_ID,ELEMENT_SET_NO,REV_AT_EPOCH,BSTAR,MEAN_MOTION_DOT,MEAN_MOTION_DDOT
STARLINK-37327,2026-082J,2026-06-18T14:28:13.113120,15.33449487,.0002077,97.2852,33.0526,88.1987,271.9494,0,U,68736,999,991,.35811E-3,.11506E-3,0
STARLINK-37348,2026-082K,2026-06-18T08:00:37.963008,15.33446462,.0001659,97.2839,32.8067,88.7674,271.3758,0,U,68737,999,987,.38762E-3,.1246E-3,0
STARLINK-37331,2026-082L,2026-06-18T14:20:23.154144,15.33453370,.0001675,97.2856,33.0593,83.5099,276.6334,0,U,68738,999,991,.32639E-3,.10479E-3,0
STARLINK-37338,2026-082M,2026-06-18T04:48:45.074016,15.33449763,.0001798,97.2844,32.6792,80.7149,279.4297,0,U,68739,999,985,.26429E-3,.8468E-4,0
STARLINK-37314,2026-082N,2026-06-18T03:03:02.265120,15.33448474,.0001919,97.2857,32.6278,96.8977,263.2484,0,U,68740,999,984,.38764E-3,.12462E-3,0
STARLINK-36314,2026-082P,2026-06-18T14:32:07.893024,15.33451974,.0002336,97.2854,33.0497,83.2837,276.8672,0,U,68741,999,991,.37995E-3,.12214E-3,0
STARLINK-37351,2026-082Q,2026-06-18T04:40:55.344864,15.33446832,.0002001,97.2841,32.6910,85.8444,274.3027,0,U,68742,999,985,.32776E-3,.10522E-3,0
STARLINK-37354,2026-082R,2026-06-18T14:55:37.642080,15.33468202,.000178,97.2841,33.1812,78.7841,281.3602,0,U,68743,999,992,.43845E-3,.14117E-3,0
STARLINK-37344,2026-082S,2026-06-18T09:07:09.980832,15.33445204,.0002093,97.2840,32.8982,84.4256,275.7226,0,U,68744,999,988,.33279E-3,.10684E-3,0
STARLINK-37267,2026-082T,2026-06-18T14:51:42.494112,15.33462408,.0002525,97.2840,33.1826,79.6177,280.5350,0,U,68745,999,992,.58723E-3,.18942E-3,0
STARLINK-37347,2026-082U,2026-06-18T04:33:05.307264,15.33442676,.0001308,97.2850,32.6956,102.2550,257.8839,0,U,68746,999,985,.20248E-3,.6467E-4,0
STARLINK-37268,2026-082V,2026-06-18T14:59:32.487648,15.33448836,.0001805,97.2849,33.1765,89.0981,271.0469,0,U,68747,999,992,.47103E-3,.15164E-3,0
STARLINK-37325,2026-082W,2026-06-18T08:08:26.054016,15.33438075,.0001383,97.2857,32.7991,85.4828,274.6573,0,U,68748,999,987,.19158E-3,.6114E-4,0
STARLINK-37324,2026-082X,2026-06-18T08:55:25.019904,15.33452197,.0002025,97.2845,32.9124,81.4489,278.6983,0,U,68749,999,988,.37122E-3,.11931E-3,0
STARLINK-37350,2026-082Y,2026-06-18T14:45:40.491072,15.33450770,.0002003,97.2849,32.1205,89.7304,270.4168,0,U,68750,999,985,.43831E-3,.14105E-3,0
STARLINK-37277,2026-082Z,2026-06-18T09:03:15.257952,15.33457945,.0001666,97.2844,32.9022,93.5869,266.5565,0,U,68751,999,988,.39269E-3,.12629E-3,0
STARLINK-37342,2026-082AA,2026-06-18T15:15:12.195648,15.33454062,.0002123,97.2838,33.1626,81.9210,278.2273,0,U,68752,999,992,.37773E-3,.12143E-3,0
SL-4 R/B,2026-083A,2026-06-18T11:23:55.387104,15.22517188,.0062531,98.2737,320.9579,223.7996,135.8270,0,U,68753,999,952,.16847E-3,.4029E-4,0
COSMOS 2609,2026-083B,2026-06-18T15:16:21.859968,15.07381350,.00123723,98.1224,318.6114,69.1769,291.0781,0,U,68754,999,944,.12656882E-3,.1847E-4,0
COSMOS 2610,2026-083F,2026-06-18T14:23:23.313696,15.06522509,.00116115,97.8054,307.5748,54.4760,305.7548,0,U,68758,999,941,.15142363E-3,.2176E-4,0
COSMOS 2611,2026-083G,2026-06-18T14:37:25.661856,15.06191473,.00125132,97.8113,307.0336,59.9686,300.2780,0,U,68759,999,940,.12418136E-3,.1757E-4,0
DAQI-2,2026-084A,2026-06-18T16:21:37.120032,14.57575701,.0003378,98.2869,243.8425,96.1175,264.0409,0,U,68760,999,911,.1646E-4,.29E-6,0
COSMOS 2612,2026-083H,2026-06-18T15:32:21.446016,15.07017570,.00139129,97.8542,307.7767,49.9211,310.3233,0,U,68762,999,942,.13074283E-3,.1896E-4,0
COSMOS 2613,2026-083J,2026-06-18T15:08:29.645088,15.07498335,.00108888,97.7802,307.6803,54.6093,305.6149,0,U,68763,999,942,.10247177E-3,.1491E-4,0
COSMOS 2614,2026-083K,2026-06-18T14:13:51.078720,15.05786646,.00067227,97.7781,306.8184,24.7749,335.3799,0,U,68764,999,941,.15534643E-3,.2188E-4,0
STARLINK-37168,2026-086A,2026-06-18T16:25:11.399808,15.33441784,.0000855,97.2838,206.5386,110.9248,249.2087,0,U,68766,999,931,.2674E-3,.8566E-4,0
STARLINK-37174,2026-086B,2026-06-18T16:21:16.301088,15.33451147,.0000513,97.2840,206.3924,117.4604,242.6691,0,U,68767,999,930,.43851E-3,.14111E-3,0
STARLINK-37279,2026-086C,2026-06-18T16:13:26.642784,15.33449906,.0000816,97.2837,206.3994,108.8107,251.3225,0,U,68768,999,930,.4649E-3,.14966E-3,0
STARLINK-36379,2026-086D,2026-06-18T16:17:21.964416,15.33433205,.0001639,97.2838,206.3948,91.1665,268.9766,0,U,68769,999,930,.16215E-3,.5161E-4,0
STARLINK-37417,2026-086E,2026-06-18T16:05:36.809088,15.33450645,.0000553,97.2840,206.4102,85.4980,274.6326,0,U,68770,999,930,.48794E-3,.15713E-3,0
