STARLINK-37327          
1 68736U 26082J   26169.60292955  .00011506  00000+0  35811-3 0  9993
2 68736  97.2852  33.0526 0002077  88.1987 271.9494 15.33449487  9914
STARLINK-37348          
1 68737U 26082K   26169.33377272  .00012460  00000+0  38762-3 0  9998
2 68737  97.2839  32.8067 0001659  88.7674 271.3758 15.33446462  9873
STARLINK-37331          
1 68738U 26082L   26169.59749021  .00010479  00000+0  32639-3 0  9997
2 68738  97.2856  33.0593 0001675  83.5099 276.6334 15.33453370  9911
STARLINK-37338          
1 68739U 26082M   26169.20052169  .00008468  00000+0  26429-3 0  9991
2 68739  97.2844  32.6792 0001798  80.7149 279.4297 15.33449763  9859
STARLINK-37314          
1 68740U 26082N   26169.12710955  .00012462  00000+0  38764-3 0  9992
2 68740  97.2857  32.6278 0001919  96.8977 263.2484 15.33448474  9842
STARLINK-36314          
1 68741U 26082P   26169.60564691  .00012214  00000+0  37995-3 0  9990
2 68741  97.2854  33.0497 0002336  83.2837 276.8672 15.33451974  9913
STARLINK-37351          
1 68742U 26082Q   26169.19508501  .00010522  00000+0  32776-3 0  9995
2 68742  97.2841  32.6910 0002001  85.8444 274.3027 15.33446832  9853
STARLINK-37354          
1 68743U 26082R   26169.62196345  .00014117  00000+0  43845-3 0  9996
2 68743  97.2841  33.1812 0001780  78.7841 281.3602 15.33468202  9926
STARLINK-37344          
1 68744U 26082S   26169.37997663  .00010684  00000+0  33279-3 0  9996
2 68744  97.2840  32.8982 0002093  84.4256 275.7226 15.33445204  9883
STARLINK-37267          
1 68745U 26082T   26169.61924183  .00018942  00000+0  58723-3 0  9997
2 68745  97.2840  33.1826 0002525  79.6177 280.5350 15.33462408  9925
STARLINK-37347          
1 68746U 26082U   26169.18964476  .00006467  00000+0  20248-3 0  9999
2 68746  97.2850  32.6956 0001308 102.2550 257.8839 15.33442676  9857
STARLINK-37268          
1 68747U 26082V   26169.62468157  .00015164  00000+0  47103-3 0  9997
2 68747  97.2849  33.1765 0001805  89.0981 271.0469 15.33448836  9921
STARLINK-37325          
1 68748U 26082W   26169.33919044  .00006114  00000+0  19158-3 0  9996
2 68748  97.2857  32.7991 0001383  85.4828 274.6573 15.33438075  9871
STARLINK-37324          
1 68749U 26082X   26169.37181736  .00011931  00000+0  37122-3 0  9994
2 68749  97.2845  32.9124 0002025  81.4489 278.6983 15.33452197  9883
STARLINK-37350          
1 68750U 26082Y   26169.61505198  .00014105  00000+0  43831-3 0  9995
2 68750  97.2849  32.1205 0002003  89.7304 270.4168 15.33450770  9851
STARLINK-37277          
1 68751U 26082Z   26169.37725993  .00012629  00000+0  39269-3 0  9995
2 68751  97.2844  32.9022 0001666  93.5869 266.5565 15.33457945  9886
STARLINK-37342          
1 68752U 26082AA  26169.63555782  .00012143  00000+0  37773-3 0  9991
2 68752  97.2838  33.1626 0002123  81.9210 278.2273 15.33454062  9921
SL-4 R/B                
1 68753U 26083A   26169.47494661  .00004029  00000+0  16847-3 0  9996
2 68753  98.2737 320.9579 0062531 223.7996 135.8270 15.22517188  9529
COSMOS 2609             
1 68754U 26083B   26169.63636412  .00001847  00000+0  12657-3 0  9997
2 68754  98.1224 318.6114 0012372  69.1769 291.0781 15.07381350  9443
COSMOS 2610             
1 68758U 26083F   26169.59957539  .00002176  00000+0  15142-3 0  9990
2 68758  97.8054 307.5748 0011611  54.4760 305.7548 15.06522509  9410
COSMOS 2611             
1 68759U 26083G   26169.60932479  .00001757  00000+0  12418-3 0  9996
2 68759  97.8113 307.0336 0012513  59.9686 300.2780 15.06191473  9403
DAQI-2                  
1 68760U 26084A   26169.68167963  .00000029  00000+0  16460-4 0  9998
2 68760  98.2869 243.8425 0003378  96.1175 264.0409 14.57575701  9117
COSMOS 2612             
1 68762U 26083H   26169.64747044  .00001896  00000+0  13074-3 0  9999
2 68762  97.8542 307.7767 0013912  49.9211 310.3233 15.07017570  9428
COSMOS 2613             
1 68763U 26083J   26169.63089867  .00001491  00000+0  10247-3 0  9991
2 68763  97.7802 307.6803 0010888  54.6093 305.6149 15.07498335  9422
COSMOS 2614             
1 68764U 26083K   26169.59295230  .00002188  00000+0  15535-3 0  9999
2 68764  97.7781 306.8184 0006722  24.7749 335.3799 15.05786646  9413
STARLINK-37168          
1 68766U 26086A   26169.68415972  .00008566  00000+0  26740-3 0  9997
2 68766  97.2838 206.5386 0000855 110.9248 249.2087 15.33441784  9310
STARLINK-37174          
1 68767U 26086B   26169.68143867  .00014111  00000+0  43851-3 0  9994
2 68767  97.2840 206.3924 0000513 117.4604 242.6691 15.33451147  9300
STARLINK-37279          
1 68768U 26086C   26169.67600281  .00014966  00000+0  46490-3 0  9992
2 68768  97.2837 206.3994 0000816 108.8107 251.3225 15.33449906  9302
STARLINK-36379          
1 68769U 26086D   26169.67872644  .00005161  00000+0  16215-3 0  9996
2 68769  97.2838 206.3948 0001639  91.1665 268.9766 15.33433205  9309
STARLINK-37417          
1 68770U 26086E   26169.67056492  .00015713  00000+0  48794-3 0  9994
2 68770  97.2840 206.4102 0000553  85.4980 274.6326 15.33450645  9300
